ONEWEB-0501             
1 54119U 22138G   26024.11426664  .00000064  00000+0  12672-3 0  9990
2 54119  87.9241 333.6362 0001490  69.8179 290.3114 13.19727002157806
ONEWEB-0502             
1 54120U 22138H   26024.25168811  .00000051  00000+0  94290-4 0  9997
2 54120  87.9250 333.5903 0001684  70.8425 289.2890 13.19726375157843
ONEWEB-0503             
1 54121U 22138J   26024.24063130  .00000054  00000+0  10250-3 0  9991
2 54121  87.9249 333.5964 0001988  75.0592 285.0761 13.19726831157835
ONEWEB-0504             
1 54122U 22138K   26024.22800006  .00000025  00000+0  30546-4 0  9990
2 54122  87.9244 333.6126 0001716  70.7346 289.3972 13.19725721157849
ONEWEB-0505             
1 54123U 22138L   26024.22483750 -.00000075  00000+0 -22075-3 0  9998
2 54123  87.9250 333.6059 0001477  64.2665 295.8620 13.19725771157823
ONEWEB-0506             
1 54124U 22138M   26024.12374600  .00000023  00000+0  23944-4 0  9999
2 54124  87.9250 333.6235 0001655  74.0341 286.0974 13.19726206157804
ONEWEB-0507             
1 54125U 22138N   26024.22008571 -.00000061  00000+0 -18493-3 0  9998
2 54125  87.9236 333.6321 0001555  76.5506 283.5800 13.19727160157860
ONEWEB-0508             
1 54126U 22138P   26024.21693169 -.00000045  00000+0 -14480-3 0  9995
2 54126  87.9240 333.6296 0001408  74.5002 285.6286 13.19725728157840
ONEWEB-0509             
1 54127U 22138Q   26023.81256783  .00000090  00000+0  19174-3 0  9991
2 54127  87.9251 333.6848 0001685  76.8697 283.2623 13.19727556157769
ONEWEB-0510             
1 54128U 22138R   26024.26934039  .00000073  00000+0  14748-3 0  9992
2 54128  87.9230 303.1511 0002109  85.5436 274.5939 13.20770709160280
ONEWEB-0511             
1 54129U 22138S   26023.35452023  .00000082  00000+0  17256-3 0  9997
2 54129  87.9252 333.7797 0002001  73.5994 286.5359 13.19727098157733
ONEWEB-0512             
1 54130U 22138T   26024.25642706  .00000091  00000+0  19436-3 0  9990
2 54130  87.9240 333.6196 0001659  68.7744 291.3566 13.19726228157829
ONEWEB-0513             
1 54131U 22138U   26024.24493931  .00000057  00000+0  10968-3 0  9997
2 54131  87.9254 333.5802 0001830  51.7431 308.3867 13.20263127157722
ONEWEB-0514             
1 54132U 22138V   26024.12057987  .00000118  00000+0  26129-3 0  9996
2 54132  87.9242 333.6346 0001898  81.0475 279.0873 13.19727474157822
ONEWEB-0515             
1 54133U 22138W   26024.25670810  .00000156  00000+0  35240-3 0  9993
2 54133  87.9231 303.1415 0001901 104.6677 255.4667 13.20774748160305
ONEWEB-0516             
1 54134U 22138X   26024.24694929  .00000079  00000+0  16531-3 0  9996
2 54134  87.9235 333.6244 0001685  81.0996 279.0327 13.19726192157847
ONEWEB-0517             
1 54135U 22138Y   26024.22640552 -.00000042  00000+0 -13777-3 0  9999
2 54135  87.9244 333.6141 0001996  74.1616 285.9737 13.19727258157846
