[{"OBJECT_NAME":"ONEWEB-0501","OBJECT_ID":"2022-138G","EPOCH":"2026-01-24T02:44:32.637696","MEAN_MOTION":13.19727002,"ECCENTRICITY":0.00014909,"INCLINATION":87.9241,"RA_OF_ASC_NODE":333.6362,"ARG_OF_PERICENTER":69.8179,"MEAN_ANOMALY":290.3114,"EPHEMERIS_TYPE":0,"CLASSIFICATION_TYPE":"U","NORAD_CAT_ID":54119,"ELEMENT_SET_NO":999,"REV_AT_EPOCH":15780,"BSTAR":0.00012671559,"MEAN_MOTION_DOT":6.4e-7,"MEAN_MOTION_DDOT":0},{"OBJECT_NAME":"ONEWEB-0502","OBJECT_ID":"2022-138H","EPOCH":"2026-01-24T06:02:25.852704","MEAN_MOTION":13.19726375,"ECCENTRICITY":0.00016849,"INCLINATION":87.925,"RA_OF_ASC_NODE":333.5903,"ARG_OF_PERICENTER":70.8425,"MEAN_ANOMALY":289.289,"EPHEMERIS_TYPE":0,"CLASSIFICATION_TYPE":"U","NORAD_CAT_ID":54120,"ELEMENT_SET_NO":999,"REV_AT_EPOCH":15784,"BSTAR":9.4290358e-5,"MEAN_MOTION_DOT":5.1e-7,"MEAN_MOTION_DDOT":0},{"OBJECT_NAME":"ONEWEB-0503","OBJECT_ID":"2022-138J","EPOCH":"2026-01-24T05:46:30.544320","MEAN_MOTION":13.19726831,"ECCENTRICITY":0.00019883,"INCLINATION":87.9249,"RA_OF_ASC_NODE":333.5964,"ARG_OF_PERICENTER":75.0592,"MEAN_ANOMALY":285.0761,"EPHEMERIS_TYPE":0,"CLASSIFICATION_TYPE":"U","NORAD_CAT_ID":54121,"ELEMENT_SET_NO":999,"REV_AT_EPOCH":15783,"BSTAR":0.00010250001,"MEAN_MOTION_DOT":5.4e-7,"MEAN_MOTION_DDOT":0},{"OBJECT_NAME":"ONEWEB-0504","OBJECT_ID":"2022-138K","EPOCH":"2026-01-24T05:28:19.205184","MEAN_MOTION":13.19725721,"ECCENTRICITY":0.00017161,"INCLINATION":87.9244,"RA_OF_ASC_NODE":333.6126,"ARG_OF_PERICENTER":70.7346,"MEAN_ANOMALY":289.3972,"EPHEMERIS_TYPE":0,"CLASSIFICATION_TYPE":"U","NORAD_CAT_ID":54122,"ELEMENT_SET_NO":999,"REV_AT_EPOCH":15784,"BSTAR":3.054613e-5,"MEAN_MOTION_DOT":2.5e-7,"MEAN_MOTION_DDOT":0},{"OBJECT_NAME":"ONEWEB-0505","OBJECT_ID":"2022-138L","EPOCH":"2026-01-24T05:23:45.960000","MEAN_MOTION":13.19725771,"ECCENTRICITY":0.00014776,"INCLINATION":87.925,"RA_OF_ASC_NODE":333.6059,"ARG_OF_PERICENTER":64.2665,"MEAN_ANOMALY":295.862,"EPHEMERIS_TYPE":0,"CLASSIFICATION_TYPE":"U","NORAD_CAT_ID":54123,"ELEMENT_SET_NO":999,"REV_AT_EPOCH":15782,"BSTAR":-0.00022075248,"MEAN_MOTION_DOT":-7.5e-7,"MEAN_MOTION_DDOT":0},{"OBJECT_NAME":"ONEWEB-0506","OBJECT_ID":"2022-138M","EPOCH":"2026-01-24T02:58:11.654400","MEAN_MOTION":13.19726206,"ECCENTRICITY":0.00016557,"INCLINATION":87.925,"RA_OF_ASC_NODE":333.6235,"ARG_OF_PERICENTER":74.0341,"MEAN_ANOMALY":286.0974,"EPHEMERIS_TYPE":0,"CLASSIFICATION_TYPE":"U","NORAD_CAT_ID":54124,"ELEMENT_SET_NO":999,"REV_AT_EPOCH":15780,"BSTAR":2.3944178e-5,"MEAN_MOTION_DOT":2.3e-7,"MEAN_MOTION_DDOT":0},{"OBJECT_NAME":"ONEWEB-0507","OBJECT_ID":"2022-138N","EPOCH":"2026-01-24T05:16:55.405344","MEAN_MOTION":13.1972716,"ECCENTRICITY":0.00015552,"INCLINATION":87.9236,"RA_OF_ASC_NODE":333.6321,"ARG_OF_PERICENTER":76.5506,"MEAN_ANOMALY":283.58,"EPHEMERIS_TYPE":0,"CLASSIFICATION_TYPE":"U","NORAD_CAT_ID":54125,"ELEMENT_SET_NO":999,"REV_AT_EPOCH":15786,"BSTAR":-0.00018492671,"MEAN_MOTION_DOT":-6.1e-7,"MEAN_MOTION_DDOT":0},{"OBJECT_NAME":"ONEWEB-0508","OBJECT_ID":"2022-138P","EPOCH":"2026-01-24T05:12:22.898016","MEAN_MOTION":13.19725728,"ECCENTRICITY":0.00014088,"INCLINATION":87.924,"RA_OF_ASC_NODE":333.6296,"ARG_OF_PERICENTER":74.5002,"MEAN_ANOMALY":285.6286,"EPHEMERIS_TYPE":0,"CLASSIFICATION_TYPE":"U","NORAD_CAT_ID":54126,"ELEMENT_SET_NO":999,"REV_AT_EPOCH":15784,"BSTAR":-0.00014480292,"MEAN_MOTION_DOT":-4.5e-7,"MEAN_MOTION_DDOT":0},{"OBJECT_NAME":"ONEWEB-0509","OBJECT_ID":"2022-138Q","EPOCH":"2026-01-23T19:30:05.860512","MEAN_MOTION":13.19727556,"ECCENTRICITY":0.00016855,"INCLINATION":87.9251,"RA_OF_ASC_NODE":333.6848,"ARG_OF_PERICENTER":76.8697,"MEAN_ANOMALY":283.2623,"EPHEMERIS_TYPE":0,"CLASSIFICATION_TYPE":"U","NORAD_CAT_ID":54127,"ELEMENT_SET_NO":999,"REV_AT_EPOCH":15776,"BSTAR":0.00019173566,"MEAN_MOTION_DOT":9.0e-7,"MEAN_MOTION_DDOT":0},{"OBJECT_NAME":"ONEWEB-0510","OBJECT_ID":"2022-138R","EPOCH":"2026-01-24T06:27:51.009696","MEAN_MOTION":13.20770709,"ECCENTRICITY":0.00021094,"INCLINATION":87.923,"RA_OF_ASC_NODE":303.1511,"ARG_OF_PERICENTER":85.5436,"MEAN_ANOMALY":274.5939,"EPHEMERIS_TYPE":0,"CLASSIFICATION_TYPE":"U","NORAD_CAT_ID":54128,"ELEMENT_SET_NO":999,"REV_AT_EPOCH":16028,"BSTAR":0.00014748393,"MEAN_MOTION_DOT":7.3e-7,"MEAN_MOTION_DDOT":0},{"OBJECT_NAME":"ONEWEB-0511","OBJECT_ID":"2022-138S","EPOCH":"2026-01-23T08:30:30.547872","MEAN_MOTION":13.19727098,"ECCENTRICITY":0.00020019,"INCLINATION":87.9252,"RA_OF_ASC_NODE":333.7797,"ARG_OF_PERICENTER":73.5994,"MEAN_ANOMALY":286.5359,"EPHEMERIS_TYPE":0,"CLASSIFICATION_TYPE":"U","NORAD_CAT_ID":54129,"ELEMENT_SET_NO":999,"REV_AT_EPOCH":15773,"BSTAR":0.00017256423,"MEAN_MOTION_DOT":8.2e-7,"MEAN_MOTION_DDOT":0},{"OBJECT_NAME":"ONEWEB-0512","OBJECT_ID":"2022-138T","EPOCH":"2026-01-24T06:09:15.297984","MEAN_MOTION":13.19726228,"ECCENTRICITY":0.00016594,"INCLINATION":87.924,"RA_OF_ASC_NODE":333.6196,"ARG_OF_PERICENTER":68.7744,"MEAN_ANOMALY":291.3566,"EPHEMERIS_TYPE":0,"CLASSIFICATION_TYPE":"U","NORAD_CAT_ID":54130,"ELEMENT_SET_NO":999,"REV_AT_EPOCH":15782,"BSTAR":0.00019435896,"MEAN_MOTION_DOT":9.1e-7,"MEAN_MOTION_DDOT":0},{"OBJECT_NAME":"ONEWEB-0513","OBJECT_ID":"2022-138U","EPOCH":"2026-01-24T05:52:42.756384","MEAN_MOTION":13.20263127,"ECCENTRICITY":0.00018304,"INCLINATION":87.9254,"RA_OF_ASC_NODE":333.5802,"ARG_OF_PERICENTER":51.7431,"MEAN_ANOMALY":308.3867,"EPHEMERIS_TYPE":0,"CLASSIFICATION_TYPE":"U","NORAD_CAT_ID":54131,"ELEMENT_SET_NO":999,"REV_AT_EPOCH":15772,"BSTAR":0.00010967687,"MEAN_MOTION_DOT":5.7e-7,"MEAN_MOTION_DDOT":0},{"OBJECT_NAME":"ONEWEB-0514","OBJECT_ID":"2022-138V","EPOCH":"2026-01-24T02:53:38.100768","MEAN_MOTION":13.19727474,"ECCENTRICITY":0.00018985,"INCLINATION":87.9242,"RA_OF_ASC_NODE":333.6346,"ARG_OF_PERICENTER":81.0475,"MEAN_ANOMALY":279.0873,"EPHEMERIS_TYPE":0,"CLASSIFICATION_TYPE":"U","NORAD_CAT_ID":54132,"ELEMENT_SET_NO":999,"REV_AT_EPOCH":15782,"BSTAR":0.0002612949,"MEAN_MOTION_DOT":1.18e-6,"MEAN_MOTION_DDOT":0},{"OBJECT_NAME":"ONEWEB-0515","OBJECT_ID":"2022-138W","EPOCH":"2026-01-24T06:09:39.579840","MEAN_MOTION":13.20774748,"ECCENTRICITY":0.0001901,"INCLINATION":87.9231,"RA_OF_ASC_NODE":303.1415,"ARG_OF_PERICENTER":104.6677,"MEAN_ANOMALY":255.4667,"EPHEMERIS_TYPE":0,"CLASSIFICATION_TYPE":"U","NORAD_CAT_ID":54133,"ELEMENT_SET_NO":999,"REV_AT_EPOCH":16030,"BSTAR":0.00035240204,"MEAN_MOTION_DOT":1.56e-6,"MEAN_MOTION_DDOT":0},{"OBJECT_NAME":"ONEWEB-0516","OBJECT_ID":"2022-138X","EPOCH":"2026-01-24T05:55:36.418656","MEAN_MOTION":13.19726192,"ECCENTRICITY":0.0001685,"INCLINATION":87.9235,"RA_OF_ASC_NODE":333.6244,"ARG_OF_PERICENTER":81.0996,"MEAN_ANOMALY":279.0327,"EPHEMERIS_TYPE":0,"CLASSIFICATION_TYPE":"U","NORAD_CAT_ID":54134,"ELEMENT_SET_NO":999,"REV_AT_EPOCH":15784,"BSTAR":0.00016530853,"MEAN_MOTION_DOT":7.9e-7,"MEAN_MOTION_DDOT":0},{"OBJECT_NAME":"ONEWEB-0517","OBJECT_ID":"2022-138Y","EPOCH":"2026-01-24T05:26:01.436928","MEAN_MOTION":13.19727258,"ECCENTRICITY":0.00019967,"INCLINATION":87.9244,"RA_OF_ASC_NODE":333.6141,"ARG_OF_PERICENTER":74.1616,"MEAN_ANOMALY":285.9737,"EPHEMERIS_TYPE":0,"CLASSIFICATION_TYPE":"U","NORAD_CAT_ID":54135,"ELEMENT_SET_NO":999,"REV_AT_EPOCH":15784,"BSTAR":-0.0001377702,"MEAN_MOTION_DOT":-4.2e-7,"MEAN_MOTION_DDOT":0}]
